H1 CPF  1  DLR 2021 06 21 10  6722 technosat            
H2  1704205 6203    42829 2021 06 21 00 00 00 2021 06 28 00 00 00    60 1 1  0 0 0
H9
10 0 59388  50400.000000  0      -1537547.895       3700519.639       5685925.681
10 0 59388  50460.000000  0      -1560697.333       4073088.604       5419311.304
10 0 59388  50520.000000  0      -1574060.367       4428588.787       5129608.083
10 0 59388  50580.000000  0      -1577735.667       4765428.017       4818046.465
10 0 59388  50640.000000  0      -1571876.619       5082094.181       4485950.979
10 0 59388  50700.000000  0      -1556689.954       5377162.338       4134734.608
10 0 59388  50760.000000  0      -1532434.095       5649301.421       3765892.766
10 0 59388  50820.000000  0      -1499417.313       5897280.560       3380996.925
10 0 59388  50880.000000  0      -1457995.631       6119975.007       2981687.801
10 0 59388  50940.000000  0      -1408570.373       6316371.569       2569668.181
10 0 59388  51000.000000  0      -1351585.412       6485573.531       2146695.432
10 0 59388  51060.000000  0      -1287524.194       6626804.955       1714573.732
10 0 59388  51120.000000  0      -1216906.578       6739414.384       1275146.103
10 0 59388  51180.000000  0      -1140285.465       6822877.957        830286.261
10 0 59388  51240.000000  0      -1058243.272       6876801.927        381890.351
10 0 59388  51300.000000  0       -971388.248       6900924.597        -68131.454
10 0 59388  51360.000000  0       -880350.623       6895117.585       -517863.494
10 0 59388  51420.000000  0       -785778.652       6859386.322       -965393.211
10 0 59388  51480.000000  0       -688334.608       6793869.818      -1408819.636
10 0 59388  51540.000000  0       -588690.724       6698839.762      -1846261.724
10 0 59388  51600.000000  0       -487525.128       6574699.008      -2275866.500
10 0 59388  51660.000000  0       -385517.800       6421979.461      -2695817.023
10 0 59388  51720.000000  0       -283346.547       6241339.389      -3104340.128
10 0 59388  51780.000000  0       -181683.013       6033560.168      -3499713.946
10 0 59388  51840.000000  0        -81188.747       5799542.452      -3880275.126
10 0 59388  51900.000000  0         17488.618       5540301.818      -4244425.760
10 0 59388  51960.000000  0        113719.069       5256963.891      -4590639.934
10 0 59388  52020.000000  0        206893.790       4950759.030      -4917469.884
10 0 59388  52080.000000  0        296428.588       4623016.606      -5223551.793
10 0 59388  52140.000000  0        381767.147       4275158.855      -5507611.178
10 0 59388  52200.000000  0        462384.072       3908694.378      -5768467.841
10 0 59388  52260.000000  0        537787.733       3525211.305      -6005040.384
10 0 59388  52320.000000  0        607522.883       3126370.198      -6216350.254
10 0 59388  52380.000000  0        671173.063       2713896.730      -6401525.365
10 0 59388  52440.000000  0        728362.786       2289574.157      -6559803.235
10 0 59388  52500.000000  0        778759.484       1855235.665      -6690533.717
10 0 59388  52560.000000  0        822075.193       1412756.522      -6793181.349
10 0 59388  52620.000000  0        858067.968        964046.066      -6867327.191
10 0 59388  52680.000000  0        886543.090        511039.688      -6912670.263
10 0 59388  52740.000000  0        907354.008         55690.666      -6929028.582
10 0 59388  52800.000000  0        920402.988       -400038.069      -6916339.681
10 0 59388  52860.000000  0        925641.505       -854182.093      -6874660.668
10 0 59388  52920.000000  0        923070.409      -1304783.633      -6804167.922
10 0 59388  52980.000000  0        912739.811      -1749899.677      -6705156.352
10 0 59388  53040.000000  0        894748.730      -2187609.999      -6578038.320
10 0 59388  53100.000000  0        869244.521      -2616025.205      -6423342.210
10 0 59388  53160.000000  0        836421.970      -3033294.769      -6241710.514
10 0 59388  53220.000000  0        796522.122      -3437614.933      -6033897.388
10 0 59388  53280.000000  0        749830.897      -3827236.369      -5800765.774
10 0 59388  53340.000000  0        696677.494      -4200471.658      -5543284.138
10 0 59388  53400.000000  0        637432.548      -4555702.571      -5262522.839
10 0 59388  53460.000000  0        572506.025      -4891387.152      -4959650.080
10 0 59388  53520.000000  0        502344.893      -5206066.546      -4635927.430
10 0 59388  53580.000000  0        427430.579      -5498371.544      -4292704.930
10 0 59388  53640.000000  0        348276.217      -5767028.775      -3931415.766
10 0 59388  53700.000000  0        265423.703      -6010866.504      -3553570.575
10 0 59388  53760.000000  0        179440.571      -6228820.024      -3160751.410
10 0 59388  53820.000000  0         90916.709      -6419936.665      -2754605.376
10 0 59388  53880.000000  0           460.926      -6583380.370      -2336837.903
10 0 59388  53940.000000  0        -91302.630      -6718435.742      -1909205.654
10 0 59388  54000.000000  0       -183738.154      -6824511.536      -1473509.172
10 0 59388  54060.000000  0       -276201.961      -6901143.576      -1031585.298
10 0 59388  54120.000000  0       -368046.330      -6947997.117       -585299.369
10 0 59388  54180.000000  0       -458623.400      -6964868.574       -136537.257
10 0 59388  54240.000000  0       -547289.081      -6951686.660        312802.695
10 0 59388  54300.000000  0       -633406.979      -6908512.943        760817.846
10 0 59388  54360.000000  0       -716352.300      -6835541.754       1205609.524
10 0 59388  54420.000000  0       -795515.700      -6733099.442       1645291.299
10 0 59388  54480.000000  0       -870307.067      -6601642.972       2077997.226
10 0 59388  54540.000000  0       -940159.199      -6441757.887       2501889.989
10 0 59388  54600.000000  0      -1004531.348      -6254155.685       2915168.959
10 0 59388  54660.000000  0      -1062912.580      -6039670.488       3316078.086
10 0 59388  54720.000000  0      -1114824.994      -5799255.152       3702913.471
10 0 59388  54780.000000  0      -1159826.830      -5533976.872       4074030.703
10 0 59388  54840.000000  0      -1197515.337      -5245012.251       4427851.942
10 0 59388  54900.000000  0      -1227529.391      -4933641.902       4762872.673
10 0 59388  54960.000000  0      -1249551.905      -4601244.634       5077668.173
10 0 59388  55020.000000  0      -1263312.007      -4249291.145       5370899.656
10 0 59388  55080.000000  0      -1268586.974      -3879337.246       5641320.018
10 0 59388  55140.000000  0      -1265203.871      -3493016.696       5887779.087
10 0 59388  55200.000000  0      -1253040.893      -3092033.756       6109228.402
10 0 59388  55260.000000  0      -1232028.410      -2678155.506       6304725.527
10 0 59388  55320.000000  0      -1202149.753      -2253203.983       6473437.936
10 0 59388  55380.000000  0      -1163441.720      -1819048.104       6614646.527
10 0 59388  55440.000000  0      -1115994.809      -1377595.338       6727748.664
10 0 59388  55500.000000  0      -1059953.167       -930783.201       6812260.704
10 0 59388  55560.000000  0       -995514.268       -480570.672       6867819.994
10 0 59388  55620.000000  0       -922928.260        -28929.579       6894186.398
10 0 59388  55680.000000  0       -842497.008        422164.082       6891243.405
10 0 59388  55740.000000  0       -754572.838        870738.891       6858998.697
10 0 59388  55800.000000  0       -659556.986       1314836.698       6797584.174
10 0 59388  55860.000000  0       -557897.779       1752521.234       6707255.507
10 0 59388  55920.000000  0       -450088.535       2181886.686       6588391.182
10 0 59388  55980.000000  0       -336665.196       2601066.072       6441491.000
10 0 59388  56040.000000  0       -218203.720       3008239.472       6267174.160
10 0 59388  56100.000000  0        -95317.243       3401642.150       6066176.815
10 0 59388  56160.000000  0         31347.001       3779572.403       5839349.076
10 0 59388  56220.000000  0        161110.988       4140399.133       5587651.555
10 0 59388  56280.000000  0        293269.429       4482569.113       5312151.467
10 0 59388  56340.000000  0        427093.506       4804614.009       5014018.290
10 0 59388  56400.000000  0        561834.793       5105157.086       4694518.821
10 0 59388  56460.000000  0        696729.247       5382919.341       4355011.714
10 0 59388  56520.000000  0        831001.288       5636725.139       3996941.709
10 0 59388  56580.000000  0        963868.055       5865507.358       3621833.710
10 0 59388  56640.000000  0       1094543.856       6068312.615       3231286.544
10 0 59388  56700.000000  0       1222244.803       6244305.875       2826965.598
10 0 59388  56760.000000  0       1346193.148       6392773.728       2410595.247
10 0 59388  56820.000000  0       1465621.640       6513127.475       1983951.558
10 0 59388  56880.000000  0       1579778.062       6604905.785       1548854.375
10 0 59388  56940.000000  0       1687929.602       6667776.470       1107159.169
10 0 59388  57000.000000  0       1789367.155       6701537.657        660748.849
10 0 59388  57060.000000  0       1883409.523       6706118.338        211525.406
10 0 59388  57120.000000  0       1969407.451       6681578.259       -238598.502
10 0 59388  57180.000000  0       2046747.511       6628107.203       -687707.997
10 0 59388  57240.000000  0       2114855.810       6546023.606      -1133894.404
10 0 59388  57300.000000  0       2173201.511       6435772.587      -1575263.618
10 0 59388  57360.000000  0       2221300.110       6297923.354      -2009944.390
10 0 59388  57420.000000  0       2258716.483       6133166.014      -2436096.456
10 0 59388  57480.000000  0       2285067.655       5942307.824      -2851918.488
10 0 59388  57540.000000  0       2300025.304       5726268.885      -3255655.835
99
